start=new Date('2022-03-27T00:00:00.000Z').valueOf();
sats=[{"SEMIMAJOR_AXIS":"6925.378","EPHEMERIS_TYPE":"0","FILE":"3375650","BSTAR":"-0.00001153000000","MEAN_ANOMALY":"294.3901","PERIAPSIS":"546.128","APOAPSIS":"548.357","OBJECT_TYPE":"PAYLOAD","LAUNCH_DATE":"2021-05-04","OBJECT_ID":"2021-038E","TLE_LINE2":"2 48357  53.0574   4.6320 0001609  65.7256 294.3901 15.06390498 49360","COUNTRY_CODE":"US","TIME_SYSTEM":"UTC","CLASSIFICATION_TYPE":"U","ELEMENT_SET_NO":"999","ECCENTRICITY":"0.00016090","MEAN_ELEMENT_THEORY":"SGP4","MEAN_MOTION":"15.06390498","MEAN_MOTION_DDOT":"0.0000000000000","OBJECT_NAME":"STARLINK-2636","GP_ID":"199778851","EPOCH":"2022-03-26T13:07:42.620448","INCLINATION":"53.0574","SITE":"AFETR","REF_FRAME":"TEME","CENTER_NAME":"EARTH","RCS_SIZE":"LARGE","TLE_LINE1":"1 48357U 21038E   22085.54702107 -.00000453  00000-0 -11530-4 0  9992","ARG_OF_PERICENTER":"65.7256","DECAY_DATE":null,"REV_AT_EPOCH":"4936","PERIOD":"95.593","RA_OF_ASC_NODE":"4.6320","MEAN_MOTION_DOT":"-0.00000453","NORAD_CAT_ID":"48357"},{"NORAD_CAT_ID":"48358","PERIOD":"95.593","RA_OF_ASC_NODE":"3.1450","MEAN_MOTION_DOT":"0.00002953","DECAY_DATE":null,"REV_AT_EPOCH":"4940","ARG_OF_PERICENTER":"54.1596","TLE_LINE1":"1 48358U 21038F   22085.87507086  .00002953  00000-0  21713-3 0  9996","RCS_SIZE":"LARGE","CENTER_NAME":"EARTH","REF_FRAME":"TEME","SITE":"AFETR","INCLINATION":"53.0562","GP_ID":"199779602","EPOCH":"2022-03-26T21:00:06.122304","OBJECT_NAME":"STARLINK-2624","MEAN_MOTION_DDOT":"0.0000000000000","MEAN_MOTION":"15.06391653","ECCENTRICITY":"0.00017670","MEAN_ELEMENT_THEORY":"SGP4","ELEMENT_SET_NO":"999","CLASSIFICATION_TYPE":"U","TIME_SYSTEM":"UTC","COUNTRY_CODE":"US","TLE_LINE2":"2 48358  53.0562   3.1450 0001767  54.1596 305.9557 15.06391653 49405","LAUNCH_DATE":"2021-05-04","OBJECT_ID":"2021-038F","OBJECT_TYPE":"PAYLOAD","APOAPSIS":"548.463","PERIAPSIS":"546.015","MEAN_ANOMALY":"305.9557","BSTAR":"0.00021713000000","FILE":"3375650","EPHEMERIS_TYPE":"0","SEMIMAJOR_AXIS":"6925.374"},{"COUNTRY_CODE":"US","TIME_SYSTEM":"UTC","CLASSIFICATION_TYPE":"U","TLE_LINE2":"2 48359  53.0559   3.4772 0001522  56.3169 303.7965 15.06394700 49394","LAUNCH_DATE":"2021-05-04","OBJECT_ID":"2021-038G","MEAN_ANOMALY":"303.7965","OBJECT_TYPE":"PAYLOAD","PERIAPSIS":"546.176","APOAPSIS":"548.284","EPHEMERIS_TYPE":"0","SEMIMAJOR_AXIS":"6925.365","FILE":"3375650","BSTAR":"0.00003719300000","RCS_SIZE":"LARGE","CENTER_NAME":"EARTH","ARG_OF_PERICENTER":"56.3169","TLE_LINE1":"1 48359U 21038G   22085.80504081  .00000272  00000-0  37193-4 0  9994","RA_OF_ASC_NODE":"3.4772","PERIOD":"95.592","MEAN_MOTION_DOT":"0.00000272","REV_AT_EPOCH":"4939","DECAY_DATE":null,"NORAD_CAT_ID":"48359","MEAN_MOTION_DDOT":"0.0000000000000","EPOCH":"2022-03-26T19:19:15.525984","GP_ID":"199779853","OBJECT_NAME":"STARLINK-2628","REF_FRAME":"TEME","SITE":"AFETR","INCLINATION":"53.0559","MEAN_MOTION":"15.06394700","ELEMENT_SET_NO":"999","MEAN_ELEMENT_THEORY":"SGP4","ECCENTRICITY":"0.00015220"},{"TLE_LINE2":"2 48360  53.0560   3.1985 0001642  59.7849 300.3302 15.06393068 49402","LAUNCH_DATE":"2021-05-04","OBJECT_ID":"2021-038H","TIME_SYSTEM":"UTC","CLASSIFICATION_TYPE":"U","COUNTRY_CODE":"US","BSTAR":"-0.00004505000000","FILE":"3375650","EPHEMERIS_TYPE":"0","SEMIMAJOR_AXIS":"6925.370","MEAN_ANOMALY":"300.3302","OBJECT_TYPE":"PAYLOAD","PERIAPSIS":"546.098","APOAPSIS":"548.372","REF_FRAME":"TEME","SITE":"AFETR","INCLINATION":"53.0560","MEAN_MOTION_DDOT":"0.0000000000000","EPOCH":"2022-03-26T20:49:28.771968","GP_ID":"199780604","OBJECT_NAME":"STARLINK-2622","RA_OF_ASC_NODE":"3.1985","PERIOD":"95.593","MEAN_MOTION_DOT":"-0.00000952","REV_AT_EPOCH":"4940","DECAY_DATE":null,"NORAD_CAT_ID":"48360","RCS_SIZE":"LARGE","CENTER_NAME":"EARTH","ARG_OF_PERICENTER":"59.7849","TLE_LINE1":"1 48360U 21038H   22085.86769412 -.00000952  00000-0 -45050-4 0  9991","ECCENTRICITY":"0.00016420","MEAN_ELEMENT_THEORY":"SGP4","ELEMENT_SET_NO":"999","MEAN_MOTION":"15.06393068"},{"CLASSIFICATION_TYPE":"U","TIME_SYSTEM":"UTC","COUNTRY_CODE":"US","TLE_LINE2":"2 48361  53.0555   3.4944 0001624  62.0745 298.0408 15.06391324 49398","OBJECT_ID":"2021-038J","LAUNCH_DATE":"2021-05-04","OBJECT_TYPE":"PAYLOAD","APOAPSIS":"548.365","PERIAPSIS":"546.115","MEAN_ANOMALY":"298.0408","BSTAR":"0.00004809600000","FILE":"3375650","EPHEMERIS_TYPE":"0","SEMIMAJOR_AXIS":"6925.375","NORAD_CAT_ID":"48361","PERIOD":"95.593","RA_OF_ASC_NODE":"3.4944","MEAN_MOTION_DOT":"0.00000435","REV_AT_EPOCH":"4939","DECAY_DATE":null,"ARG_OF_PERICENTER":"62.0745","TLE_LINE1":"1 48361U 21038J   22085.79766336  .00000435  00000-0  48096-4 0  9993","RCS_SIZE":"LARGE","CENTER_NAME":"EARTH","SITE":"AFETR","REF_FRAME":"TEME","INCLINATION":"53.0555","GP_ID":"199779352","EPOCH":"2022-03-26T19:08:38.114304","OBJECT_NAME":"STARLINK-2591","MEAN_MOTION_DDOT":"0.0000000000000","MEAN_MOTION":"15.06391324","ECCENTRICITY":"0.00016240","MEAN_ELEMENT_THEORY":"SGP4","ELEMENT_SET_NO":"999"},{"SITE":"AFETR","REF_FRAME":"TEME","INCLINATION":"53.0562","GP_ID":"199745156","EPOCH":"2022-03-26T11:46:43.553568","OBJECT_NAME":"STARLINK-2578","MEAN_MOTION_DDOT":"0.0000000000000","NORAD_CAT_ID":"48362","PERIOD":"95.592","MEAN_MOTION_DOT":"0.00000306","RA_OF_ASC_NODE":"4.8892","DECAY_DATE":null,"REV_AT_EPOCH":"4935","ARG_OF_PERICENTER":"54.2280","TLE_LINE1":"1 48362U 21038K   22085.49078187  .00000306  00000-0  39451-4 0  9993","RCS_SIZE":"LARGE","CENTER_NAME":"EARTH","MEAN_ELEMENT_THEORY":"SGP4","ECCENTRICITY":"0.00018660","ELEMENT_SET_NO":"999","MEAN_MOTION":"15.06397954","TLE_LINE2":"2 48362  53.0562   4.8892 0001866  54.2280 305.8883 15.06397954 49354","OBJECT_ID":"2021-038K","LAUNCH_DATE":"2021-05-04","CLASSIFICATION_TYPE":"U","TIME_SYSTEM":"UTC","COUNTRY_CODE":"US","FILE":"3375254","BSTAR":"0.00003945100000","EPHEMERIS_TYPE":"0","SEMIMAJOR_AXIS":"6925.355","OBJECT_TYPE":"PAYLOAD","APOAPSIS":"548.512","PERIAPSIS":"545.928","MEAN_ANOMALY":"305.8883"},{"COUNTRY_CODE":"US","CLASSIFICATION_TYPE":"U","TIME_SYSTEM":"UTC","LAUNCH_DATE":"2021-05-04","OBJECT_ID":"2021-038L","TLE_LINE2":"2 48363  53.0577 358.0092 0001669  74.6836 285.4338 15.06396301 49488","APOAPSIS":"548.381","PERIAPSIS":"546.069","OBJECT_TYPE":"PAYLOAD","MEAN_ANOMALY":"285.4338","SEMIMAJOR_AXIS":"6925.360","EPHEMERIS_TYPE":"0","FILE":"3375650","BSTAR":"0.00005662700000","TLE_LINE1":"1 48363U 21038L   22085.90685462  .00000562  00000-0  56627-4 0  9998","ARG_OF_PERICENTER":"74.6836","CENTER_NAME":"EARTH","RCS_SIZE":"LARGE","NORAD_CAT_ID":"48363","DECAY_DATE":null,"REV_AT_EPOCH":"4948","PERIOD":"95.592","MEAN_MOTION_DOT":"0.00000562","RA_OF_ASC_NODE":"358.0092","OBJECT_NAME":"STARLINK-2626","EPOCH":"2022-03-26T21:45:52.239168","GP_ID":"199780354","MEAN_MOTION_DDOT":"0.0000000000000","INCLINATION":"53.0577","REF_FRAME":"TEME","SITE":"AFETR","MEAN_MOTION":"15.06396301","ELEMENT_SET_NO":"999","ECCENTRICITY":"0.00016690","MEAN_ELEMENT_THEORY":"SGP4"},{"INCLINATION":"53.0553","SITE":"AFETR","REF_FRAME":"TEME","MEAN_MOTION_DDOT":"0.0000000000000","OBJECT_NAME":"STARLINK-2611","GP_ID":"199780104","EPOCH":"2022-03-26T21:39:12.607200","DECAY_DATE":null,"REV_AT_EPOCH":"4948","PERIOD":"95.592","MEAN_MOTION_DOT":"-0.00000995","RA_OF_ASC_NODE":"358.0373","NORAD_CAT_ID":"48364","CENTER_NAME":"EARTH","RCS_SIZE":"LARGE","TLE_LINE1":"1 48364U 21038M   22085.90222925 -.00000995  00000-0 -47899-4 0  9993","ARG_OF_PERICENTER":"57.7297","MEAN_ELEMENT_THEORY":"SGP4","ECCENTRICITY":"0.00016800","ELEMENT_SET_NO":"999","MEAN_MOTION":"15.06395601","LAUNCH_DATE":"2021-05-04","OBJECT_ID":"2021-038M","TLE_LINE2":"2 48364  53.0553 358.0373 0001680  57.7297 302.3854 15.06395601 49485","TIME_SYSTEM":"UTC","CLASSIFICATION_TYPE":"U","COUNTRY_CODE":"US","BSTAR":"-0.00004789900000","FILE":"3375650","SEMIMAJOR_AXIS":"6925.362","EPHEMERIS_TYPE":"0","MEAN_ANOMALY":"302.3854","PERIAPSIS":"546.064","APOAPSIS":"548.391","OBJECT_TYPE":"PAYLOAD"},{"MEAN_ANOMALY":"297.4251","OBJECT_TYPE":"PAYLOAD","PERIAPSIS":"546.132","APOAPSIS":"548.312","EPHEMERIS_TYPE":"0","SEMIMAJOR_AXIS":"6925.357","BSTAR":"0.00007216700000","FILE":"3375650","COUNTRY_CODE":"US","TIME_SYSTEM":"UTC","CLASSIFICATION_TYPE":"U","TLE_LINE2":"2 48365  53.0551 358.7348 0001574  62.6898 297.4251 15.06397267 49460","LAUNCH_DATE":"2021-05-04","OBJECT_ID":"2021-038N","MEAN_MOTION":"15.06397267","ELEMENT_SET_NO":"999","MEAN_ELEMENT_THEORY":"SGP4","ECCENTRICITY":"0.00015740","RCS_SIZE":"LARGE","CENTER_NAME":"EARTH","ARG_OF_PERICENTER":"62.6898","TLE_LINE1":"1 48365U 21038N   22085.74836516  .00000793  00000-0  72167-4 0  9993","RA_OF_ASC_NODE":"358.7348","PERIOD":"95.592","MEAN_MOTION_DOT":"0.00000793","DECAY_DATE":null,"REV_AT_EPOCH":"4946","NORAD_CAT_ID":"48365","MEAN_MOTION_DDOT":"0.0000000000000","EPOCH":"2022-03-26T17:57:38.749824","GP_ID":"199778852","OBJECT_NAME":"STARLINK-2608","REF_FRAME":"TEME","SITE":"AFETR","INCLINATION":"53.0551"},{"COUNTRY_CODE":"US","CLASSIFICATION_TYPE":"U","TIME_SYSTEM":"UTC","LAUNCH_DATE":"2021-05-04","OBJECT_ID":"2021-038P","TLE_LINE2":"2 48366  53.0571 353.1803 0001584  68.5573 291.5585 15.06397022 49547","APOAPSIS":"548.320","PERIAPSIS":"546.126","OBJECT_TYPE":"PAYLOAD","MEAN_ANOMALY":"291.5585","SEMIMAJOR_AXIS":"6925.358","EPHEMERIS_TYPE":"0","FILE":"3375650","BSTAR":"0.00007469500000","TLE_LINE1":"1 48366U 21038P   22085.86862249  .00000831  00000-0  74695-4 0  9990","ARG_OF_PERICENTER":"68.5573","CENTER_NAME":"EARTH","RCS_SIZE":"LARGE","NORAD_CAT_ID":"48366","DECAY_DATE":null,"REV_AT_EPOCH":"4954","MEAN_MOTION_DOT":"0.00000831","PERIOD":"95.592","RA_OF_ASC_NODE":"353.1803","OBJECT_NAME":"STARLINK-2631","GP_ID":"199779603","EPOCH":"2022-03-26T20:50:48.983136","MEAN_MOTION_DDOT":"0.0000000000000","INCLINATION":"53.0571","SITE":"AFETR","REF_FRAME":"TEME","MEAN_MOTION":"15.06397022","ELEMENT_SET_NO":"999","MEAN_ELEMENT_THEORY":"SGP4","ECCENTRICITY":"0.00015840"}];
